{"type": "FeatureCollection", "features": [ {"type": "Feature", "properties": {"norad_id": 31768, "name": "FENGYUN 1C DEB", "group": "fengyun-1c-debris", "lat": 27.484098066732198, "lon": 55.325208744562374, "alt_km": 627.8821355283526, "timestamp": "2025-12-13T03:42:11.557115+00:00", "meta": {"OBJECT_NAME": "FENGYUN 1C DEB", "OBJECT_ID": "1999-025CFT", "EPOCH": "2025-12-11T16:28:44.763744", "MEAN_MOTION": 14.76089609, "ECCENTRICITY": 0.00263694, "INCLINATION": 99.0421, "RA_OF_ASC_NODE": 58.4364, "ARG_OF_PERICENTER": 344.6735, "MEAN_ANOMALY": 168.3592, "EPHEMERIS_TYPE": 0, "CLASSIFICATION_TYPE": "U", "NORAD_CAT_ID": 31768, "ELEMENT_SET_NO": 999, "REV_AT_EPOCH": 96857, "BSTAR": 0.0036357712, "MEAN_MOTION_DOT": 0.00025253, "MEAN_MOTION_DDOT": 0}, "tle": {"line1": "1 31768U 99025CFT 25345.68662921  .00025253  00000+0  36358-2 0  9992", "line2": "2 31768  99.0421  58.4364 0026369 344.6735 168.3592 14.76089609968579"}}, "geometry": {"type": "Point", "coordinates": [55.325208744562374, 27.484098066732198]}}, {"type": "Feature", "properties": {"norad_id": 31772, "name": "FENGYUN 1C DEB", "group": "fengyun-1c-debris", "lat": 37.153918629541025, "lon": -101.90224844912153, "alt_km": 823.6547451831375, "timestamp": "2025-12-13T03:42:11.557124+00:00", "meta": {"OBJECT_NAME": "FENGYUN 1C DEB", "OBJECT_ID": "1999-025CFX", "EPOCH": "2025-12-11T05:35:48.586272", "MEAN_MOTION": 14.11688843, "ECCENTRICITY": 0.01364755, "INCLINATION": 98.4728, "RA_OF_ASC_NODE": 262.7683, "ARG_OF_PERICENTER": 117.9811, "MEAN_ANOMALY": 243.525, "EPHEMERIS_TYPE": 0, "CLASSIFICATION_TYPE": "U", "NORAD_CAT_ID": 31772, "ELEMENT_SET_NO": 999, "REV_AT_EPOCH": 70862, "BSTAR": 0.0014944149, "MEAN_MOTION_DOT": 2.93e-05, "MEAN_MOTION_DDOT": 0}, "tle": {"line1": "1 31772U 99025CFX 25345.23320123  .00002930  00000+0  14944-2 0  9997", "line2": "2 31772  98.4728 262.7683 0136475 117.9811 243.5250 14.11688843708626"}}, "geometry": {"type": "Point", "coordinates": [-101.90224844912153, 37.153918629541025]}}, {"type": "Feature", "properties": {"norad_id": 31773, "name": "FENGYUN 1C DEB", "group": "fengyun-1c-debris", "lat": -25.54534608453129, "lon": 153.79696307272337, "alt_km": 633.5067604754722, "timestamp": "2025-12-13T03:42:11.557137+00:00", "meta": {"OBJECT_NAME": "FENGYUN 1C DEB", "OBJECT_ID": "1999-025CFY", "EPOCH": "2025-12-11T19:47:37.130784", "MEAN_MOTION": 14.72801244, "ECCENTRICITY": 0.00389965, "INCLINATION": 98.9502, "RA_OF_ASC_NODE": 336.6531, "ARG_OF_PERICENTER": 181.3307, "MEAN_ANOMALY": 178.78, "EPHEMERIS_TYPE": 0, "CLASSIFICATION_TYPE": "U", "NORAD_CAT_ID": 31773, "ELEMENT_SET_NO": 999, "REV_AT_EPOCH": 65161, "BSTAR": 0.002925093, "MEAN_MOTION_DOT": 0.00018915, "MEAN_MOTION_DDOT": 0}, "tle": {"line1": "1 31773U 99025CFY 25345.82473531  .00018915  00000+0  29251-2 0  9992", "line2": "2 31773  98.9502 336.6531 0038996 181.3307 178.7800 14.72801244651614"}}, "geometry": {"type": "Point", "coordinates": [153.79696307272337, -25.54534608453129]}}, {"type": "Feature", "properties": {"norad_id": 31776, "name": "FENGYUN 1C DEB", "group": "fengyun-1c-debris", "lat": -19.002860858755483, "lon": -136.24833764427527, "alt_km": 862.5391024929286, "timestamp": "2025-12-13T03:42:11.557149+00:00", "meta": {"OBJECT_NAME": "FENGYUN 1C DEB", "OBJECT_ID": "1999-025CGB", "EPOCH": "2025-12-10T10:30:15.554592", "MEAN_MOTION": 14.18530208, "ECCENTRICITY": 0.00545226, "INCLINATION": 99.0756, "RA_OF_ASC_NODE": 44.129, "ARG_OF_PERICENTER": 341.0208, "MEAN_ANOMALY": 33.1923, "EPHEMERIS_TYPE": 0, "CLASSIFICATION_TYPE": "U", "NORAD_CAT_ID": 31776, "ELEMENT_SET_NO": 999, "REV_AT_EPOCH": 94848, "BSTAR": 0.0019236943, "MEAN_MOTION_DOT": 3.993e-05, "MEAN_MOTION_DDOT": 0}, "tle": {"line1": "1 31776U 99025CGB 25344.43768003  .00003993  00000+0  19237-2 0  9995", "line2": "2 31776  99.0756  44.1290 0054522 341.0208  33.1923 14.18530208948484"}}, "geometry": {"type": "Point", "coordinates": [-136.24833764427527, -19.002860858755483]}}, {"type": "Feature", "properties": {"norad_id": 31779, "name": "FENGYUN 1C DEB", "group": "fengyun-1c-debris", "lat": 4.308284344805012, "lon": 87.86661353837478, "alt_km": 604.337393617855, "timestamp": "2025-12-13T03:42:11.557159+00:00", "meta": {"OBJECT_NAME": "FENGYUN 1C DEB", "OBJECT_ID": "1999-025CGE", "EPOCH": "2025-12-11T12:34:35.760000", "MEAN_MOTION": 14.41592945, "ECCENTRICITY": 0.02132207, "INCLINATION": 99.2981, "RA_OF_ASC_NODE": 265.3848, "ARG_OF_PERICENTER": 186.4741, "MEAN_ANOMALY": 173.3682, "EPHEMERIS_TYPE": 0, "CLASSIFICATION_TYPE": "U", "NORAD_CAT_ID": 31779, "ELEMENT_SET_NO": 999, "REV_AT_EPOCH": 96992, "BSTAR": 0.00040723381, "MEAN_MOTION_DOT": 1.677e-05, "MEAN_MOTION_DDOT": 0}, "tle": {"line1": "1 31779U 99025CGE 25345.52402500  .00001677  00000+0  40723-3 0  9998", "line2": "2 31779  99.2981 265.3848 0213220 186.4741 173.3682 14.41592945969923"}}, "geometry": {"type": "Point", "coordinates": [87.86661353837478, 4.308284344805012]}}, {"type": "Feature", "properties": {"norad_id": 31780, "name": "FENGYUN 1C DEB", "group": "fengyun-1c-debris", "lat": 0.28616267838382053, "lon": -40.111391477437785, "alt_km": 729.300707428456, "timestamp": "2025-12-13T03:42:11.557169+00:00", "meta": {"OBJECT_NAME": "FENGYUN 1C DEB", "OBJECT_ID": "1999-025CGF", "EPOCH": "2025-12-12T04:01:25.093056", "MEAN_MOTION": 14.69537238, "ECCENTRICITY": 0.01508328, "INCLINATION": 99.2857, "RA_OF_ASC_NODE": 138.7206, "ARG_OF_PERICENTER": 54.9749, "MEAN_ANOMALY": 306.55, "EPHEMERIS_TYPE": 0, "CLASSIFICATION_TYPE": "U", "NORAD_CAT_ID": 31780, "ELEMENT_SET_NO": 999, "REV_AT_EPOCH": 98489, "BSTAR": 0.00046885445, "MEAN_MOTION_DOT": 3.243e-05, "MEAN_MOTION_DDOT": 0}, "tle": {"line1": "1 31780U 99025CGF 25346.16765154  .00003243  00000+0  46885-3 0  9994", "line2": "2 31780  99.2857 138.7206 0150832  54.9749 306.5500 14.69537238984890"}}, "geometry": {"type": "Point", "coordinates": [-40.111391477437785, 0.28616267838382053]}}, {"type": "Feature", "properties": {"norad_id": 31781, "name": "FENGYUN 1C DEB", "group": "fengyun-1c-debris", "lat": -40.02681177922894, "lon": -30.005957889801753, "alt_km": 763.2862781035692, "timestamp": "2025-12-13T03:42:11.557179+00:00", "meta": {"OBJECT_NAME": "FENGYUN 1C DEB", "OBJECT_ID": "1999-025CGG", "EPOCH": "2025-12-09T06:52:06.193920", "MEAN_MOTION": 14.12885604, "ECCENTRICITY": 0.0203697, "INCLINATION": 99.4979, "RA_OF_ASC_NODE": 153.9738, "ARG_OF_PERICENTER": 283.3787, "MEAN_ANOMALY": 74.4748, "EPHEMERIS_TYPE": 0, "CLASSIFICATION_TYPE": "U", "NORAD_CAT_ID": 31781, "ELEMENT_SET_NO": 999, "REV_AT_EPOCH": 68299, "BSTAR": 0.004746, "MEAN_MOTION_DOT": 0.0001072, "MEAN_MOTION_DDOT": 0}, "tle": {"line1": "1 31781U 99025CGG 25343.28618280  .00010720  00000+0  47460-2 0  9999", "line2": "2 31781  99.4979 153.9738 0203697 283.3787  74.4748 14.12885604682997"}}, "geometry": {"type": "Point", "coordinates": [-30.005957889801753, -40.02681177922894]}}, {"type": "Feature", "properties": {"norad_id": 31782, "name": "FENGYUN 1C DEB", "group": "fengyun-1c-debris", "lat": -1.9004039526431855, "lon": 148.65501434628587, "alt_km": 717.3312841965972, "timestamp": "2025-12-13T03:42:11.557190+00:00", "meta": {"OBJECT_NAME": "FENGYUN 1C DEB", "OBJECT_ID": "1999-025CGH", "EPOCH": "2025-12-12T05:08:34.345824", "MEAN_MOTION": 14.36232417, "ECCENTRICITY": 0.00795156, "INCLINATION": 98.9039, "RA_OF_ASC_NODE": 147.386, "ARG_OF_PERICENTER": 358.569, "MEAN_ANOMALY": 182.0654, "EPHEMERIS_TYPE": 0, "CLASSIFICATION_TYPE": "U", "NORAD_CAT_ID": 31782, "ELEMENT_SET_NO": 999, "REV_AT_EPOCH": 96683, "BSTAR": 0.00055247789, "MEAN_MOTION_DOT": 1.624e-05, "MEAN_MOTION_DDOT": 0}, "tle": {"line1": "1 31782U 99025CGH 25346.21428641  .00001624  00000+0  55248-3 0  9993", "line2": "2 31782  98.9039 147.3860 0079515 358.5690 182.0654 14.36232417966834"}}, "geometry": {"type": "Point", "coordinates": [148.65501434628587, -1.9004039526431855]}}, {"type": "Feature", "properties": {"norad_id": 31783, "name": "FENGYUN 1C DEB", "group": "fengyun-1c-debris", "lat": -35.888647800869876, "lon": 169.50401237673037, "alt_km": 943.4237505810561, "timestamp": "2025-12-13T03:42:11.557202+00:00", "meta": {"OBJECT_NAME": "FENGYUN 1C DEB", "OBJECT_ID": "1999-025CGJ", "EPOCH": "2025-12-09T19:23:45.829248", "MEAN_MOTION": 14.08820049, "ECCENTRICITY": 0.01044162, "INCLINATION": 98.6045, "RA_OF_ASC_NODE": 352.5993, "ARG_OF_PERICENTER": 58.2322, "MEAN_ANOMALY": 116.4574, "EPHEMERIS_TYPE": 0, "CLASSIFICATION_TYPE": "U", "NORAD_CAT_ID": 31783, "ELEMENT_SET_NO": 999, "REV_AT_EPOCH": 89179, "BSTAR": 0.00080306341, "MEAN_MOTION_DOT": 1.417e-05, "MEAN_MOTION_DDOT": 0}, "tle": {"line1": "1 31783U 99025CGJ 25343.80816932  .00001417  00000+0  80306-3 0  9993", "line2": "2 31783  98.6045 352.5993 0104416  58.2322 116.4574 14.08820049891798"}}, "geometry": {"type": "Point", "coordinates": [169.50401237673037, -35.888647800869876]}}, {"type": "Feature", "properties": {"norad_id": 31788, "name": "FENGYUN 1C DEB", "group": "fengyun-1c-debris", "lat": 35.01929330759696, "lon": -40.77791070213762, "alt_km": 893.4665133175531, "timestamp": "2025-12-13T03:42:11.557212+00:00", "meta": {"OBJECT_NAME": "FENGYUN 1C DEB", "OBJECT_ID": "1999-025CGP", "EPOCH": "2025-12-12T04:40:04.386144", "MEAN_MOTION": 13.45085108, "ECCENTRICITY": 0.04626688, "INCLINATION": 102.5556, "RA_OF_ASC_NODE": 129.0384, "ARG_OF_PERICENTER": 88.0026, "MEAN_ANOMALY": 85.9137, "EPHEMERIS_TYPE": 0, "CLASSIFICATION_TYPE": "U", "NORAD_CAT_ID": 31788, "ELEMENT_SET_NO": 999, "REV_AT_EPOCH": 90597, "BSTAR": 0.0035310325, "MEAN_MOTION_DOT": 3.915e-05, "MEAN_MOTION_DDOT": 0}, "tle": {"line1": "1 31788U 99025CGP 25346.19449521  .00003915  00000+0  35310-2 0  9998", "line2": "2 31788 102.5556 129.0384 0462668  88.0026  85.9137 13.45085108905974"}}, "geometry": {"type": "Point", "coordinates": [-40.77791070213762, 35.01929330759696]}}]}